NORAD_CAT_ID,OBJECT_NAME,OBJECT_TYPE,EPOCH,MEAN_MOTION,ECCENTRICITY,INCLINATION,RA_OF_ASC_NODE,ARG_OF_PERICENTER,MEAN_ANOMALY,BSTAR,MEAN_MOTION_DOT,MEAN_MOTION_DDOT,TLE_LINE0,TLE_LINE1,TLE_LINE2,SEMIMAJOR_AXIS,PERIOD,APOGEE,PERIGEE,DECAYED
51104.0,STARLINK-3366,PAYLOAD,2022-05-15 06:00:00,15.13088291,0.0001563,53.2174,69.0627,52.3927,264.6486,-0.038453,-0.00645884,0.0,0 STARLINK-3366,1 51104U 22005A   22135.25001157 -.00645884  00000-0 -38453-1 0  9995,2 51104  53.2174  69.0627 0001563  52.3927 264.6486 15.13088291 19473,6904.925,95.17,527.87,525.711,0.0
51104.0,STARLINK-3366,PAYLOAD,2022-05-15 14:00:01,15.12634275,0.0001421,53.2175,67.553,55.1326,278.399,-0.039166,-0.00649282,0.0,0 STARLINK-3366,1 51104U 22005A   22135.58335648 -.00649282  00000-0 -39166-1 0  9994,2 51104  53.2175  67.5530 0001421  55.1326 278.3990 15.12634275  1300,6906.307,95.198,529.153,527.191,0.0
51104.0,STARLINK-3366,PAYLOAD,2022-05-15 22:00:00,15.1217951,0.000154,53.2176,66.0464,50.2922,299.0547,-0.039753,-0.00650588,0.0,0 STARLINK-3366,1 51104U 22005A   22135.91667824 -.00650588  00000-0 -39753-1 0  9998,2 51104  53.2176  66.0464 0001540  50.2922 299.0547 15.12179510  1305,6907.691999999999,95.227,530.62,528.493,0.0
51104.0,STARLINK-3366,PAYLOAD,2022-05-16 06:00:02,15.11721109,0.0001404,53.2174,64.5418,56.7385,308.0029,-0.039961,-0.00645949,0.0,0 STARLINK-3366,1 51104U 22005A   22136.25002315 -.00645949  00000-0 -39961-1 0  9990,2 51104  53.2174  64.5418 0001404  56.7385 308.0029 15.11721109 19624,6909.0880000000025,95.256,531.923,529.9830000000002,0.0
51104.0,STARLINK-3366,PAYLOAD,2022-05-16 14:00:01,15.11266441,0.0001489,53.2175,63.0353,48.4898,330.9733,-0.040627,-0.0064829,0.0,0 STARLINK-3366,1 51104U 22005A   22136.58334491 -.00648290  00000-0 -40627-1 0  9992,2 51104  53.2175  63.0353 0001489  48.4898 330.9733 15.11266441  1302,6910.474,95.284,533.368,531.31,0.0
51104.0,STARLINK-3366,PAYLOAD,2022-05-16 22:00:00,15.1081255,0.000159,53.2176,61.5321,46.631,347.0673,-0.041339,-0.00651189,0.0,0 STARLINK-3366,1 51104U 22005A   22136.91667824 -.00651189  00000-0 -41339-1 0  9990,2 51104  53.2176  61.5321 0001590  46.6310 347.0673 15.10812550  1302,6911.858,95.313,534.822,532.624,0.0
51104.0,STARLINK-3366,PAYLOAD,2022-05-17 06:00:00,15.1035374,0.0001495,53.2174,60.0306,50.6602,356.7271,-0.04149,-0.00645647,0.0,0 STARLINK-3366,1 51104U 22005A   22137.25001157 -.00645647  00000-0 -41490-1 0  9999,2 51104  53.2174  60.0306 0001495  50.6602 356.7271 15.10353740 19772,6913.257,95.342,536.156,534.089,0.0
51104.0,STARLINK-3366,PAYLOAD,2022-05-17 14:00:01,15.09898728,0.00015,53.2174,58.5271,49.3853,11.2068,-0.042139,-0.00647418,0.0,0 STARLINK-3366,1 51104U 22005A   22137.58335648 -.00647418  00000-0 -42139-1 0  9999,2 51104  53.2174  58.5271 0001500  49.3853  11.2068 15.09898728  1300,6914.646,95.371,537.548,535.474,0.0
51104.0,STARLINK-3366,PAYLOAD,2022-05-17 22:00:01,15.094400199999995,0.0001684,53.2175,57.0278,44.9898,28.1953,-0.042162,-0.00640103,0.0,0 STARLINK-3366,1 51104U 22005A   22137.91668981 -.00640103  00000-0 -42162-1 0  9995,2 51104  53.2175  57.0278 0001684  44.9898  28.1953 15.09440020  1303,6916.047,95.4,539.077,536.747,0.0
51104.0,STARLINK-3366,PAYLOAD,2022-05-18 06:00:00,15.08870977,0.0001435,53.2173,55.5307,58.3198,26.86,-0.0033836,-0.00053781,0.0,0 STARLINK-3366,1 51104U 22005A   22138.25001157 -.00053781  00000-0 -33836-2 0  9998,2 51104  53.2173  55.5307 0001435  58.3198  26.8600 15.08870977 19932,6917.786,95.436,540.643,538.658,0.0
51104.0,STARLINK-3366,PAYLOAD,2022-05-18 14:00:01,15.08836501,0.0001559,53.2174,54.0323,50.1186,46.6715,5.410600000000002e-05,5.73e-06,0.0,0 STARLINK-3366,1 51104U 22005A   22138.58334491  .00000573  00000-0  54106-4 0  9998,2 51104  53.2174  54.0323 0001559  50.1186  46.6715 15.08836501  1303,6917.891,95.438,540.835,538.678,0.0
51104.0,STARLINK-3366,PAYLOAD,2022-05-18 20:00:01,15.08906556,0.0001564,53.2123,52.9189,54.867,320.7515,-0.002023,-0.00032398,0.0,0 STARLINK-3366,1 51104U 22005A   22138.83334491 -.00032398  00000-0 -20230-2 0  9997,2 51104  53.2123  52.9189 0001564  54.8670 320.7515 15.08906556 20010,6917.677,95.433,540.624,538.46,0.0
51104.0,STARLINK-3366,PAYLOAD,2022-05-18 22:00:00,15.08917686,0.0001631,53.2123,52.5452,52.7911,55.7409,-0.0044741999999999,-0.00070945,0.0,0 STARLINK-3366,1 51104U 22005A   22138.91667824 -.00070945  00000-0 -44742-2 0  9999,2 51104  53.2123  52.5452 0001631  52.7911  55.7409 15.08917686  1303,6917.643,95.433,540.636,538.38,0.0
51104.0,STARLINK-3366,PAYLOAD,2022-05-19 06:00:00,15.08850967,0.0001754999999999,53.2122,51.0496,47.6542,72.5264,-0.0039013,-0.00061864,0.0,0 STARLINK-3366,1 51104U 22005A   22139.25001157 -.00061864  00000-0 -39013-2 0  9993,2 51104  53.2122  51.0496 0001755  47.6542  72.5264 15.08850967 20084,6917.847,95.437,540.9259999999998,538.498,0.0
51104.0,STARLINK-3366,PAYLOAD,2022-05-19 14:00:01,15.08769482,0.0001561999999999,53.2124,49.5512,54.5292,77.3087,0.0030662,0.00048754,0.0,0 STARLINK-3366,1 51104U 22005A   22139.58335648  .00048754  00000-0  30662-2 0  9996,2 51104  53.2124  49.5512 0001562  54.5292  77.3087 15.08769482  1303,6918.096,95.442,541.0419999999998,538.88,0.0
51104.0,STARLINK-3366,PAYLOAD,2022-05-19 22:00:00,15.08811043,0.0001643,53.2126,48.0557,53.5905,89.7089,-1.5825e-05,-5.400000000000002e-06,0.0,0 STARLINK-3366,1 51104U 22005A   22139.91667824 -.00000540  00000-0 -15825-4 0  9996,2 51104  53.2126  48.0557 0001643  53.5905  89.7089 15.08811043 20185,6917.969,95.439,540.971,538.697,0.0
51104.0,STARLINK-3366,PAYLOAD,2022-05-20 14:00:01,15.08836463,0.0001585999999999,53.2125,45.0616,55.5072,110.9649,0.00056555,8.723e-05,0.0,0 STARLINK-3366,1 51104U 22005A   22140.58334491  .00008723  00000-0  56555-3 0  9995,2 51104  53.2125  45.0616 0001586  55.5072 110.9649 15.08836463 20283,6917.891,95.438,540.8530000000002,538.659,0.0
51104.0,STARLINK-3366,PAYLOAD,2022-05-20 22:00:00,15.08842549,0.000173,53.2129,43.566,56.5606,121.5081,-0.00021727,-3.745e-05,0.0,0 STARLINK-3366,1 51104U 22005A   22140.91667824 -.00003745  00000-0 -21727-3 0  9995,2 51104  53.2129  43.5660 0001730  56.5606 121.5081 15.08842549  1306,6917.873000000001,95.437,540.934,538.5409999999998,0.0
51104.0,STARLINK-3366,PAYLOAD,2022-05-21 06:00:00,15.08834616,0.0001749,53.2124,42.0699,50.9098,138.8266,-0.00077471,-0.00012595,0.0,0 STARLINK-3366,1 51104U 22005A   22141.25001157 -.00012595  00000-0 -77471-3 0  9994,2 51104  53.2124  42.0699 0001749  50.9098 138.8266 15.08834616  1302,6917.897,95.438,540.972,538.552,0.0
51104.0,STARLINK-3366,PAYLOAD,2022-05-21 14:00:01,15.08801512,0.0001516,53.2124,40.5716,56.8545,144.548,0.0038703,0.00061783,0.0,0 STARLINK-3366,1 51104U 22005A   22141.58335648  .00061783  00000-0  38703-2 0  9990,2 51104  53.2124  40.5716 0001516  56.8545 144.5480 15.08801512 20435,6917.998000000001,95.44,540.9119999999998,538.814,0.0
51104.0,STARLINK-3366,PAYLOAD,2022-05-21 22:00:00,15.08853846,0.0001611,53.2127,39.0764,54.8865,158.0283,-0.00033822,-5.669e-05,0.0,0 STARLINK-3366,1 51104U 22005A   22141.91667824 -.00005669  00000-0 -33822-3 0  9992,2 51104  53.2127  39.0764 0001611  54.8865 158.0283 15.08853846  1306,6917.8380000000025,95.437,540.818,538.589,0.0
51104.0,STARLINK-3366,PAYLOAD,2022-05-22 06:00:00,15.08863452,0.0001641999999999,53.2122,37.5801,50.4255,174.09400000000005,-0.0026748,-0.00042633,0.0,0 STARLINK-3366,1 51104U 22005A   22142.25001157 -.00042633  00000-0 -26748-2 0  9991,2 51104  53.2122  37.5801 0001642  50.4255 174.0940 15.08863452 20533,6917.809,95.436,540.81,538.538,0.0
51104.0,STARLINK-3366,PAYLOAD,2022-05-22 14:00:01,15.08809863,0.0001538,53.2122,36.0818,59.2063,176.9281,0.0017588,0.00027791,0.0,0 STARLINK-3366,1 51104U 22005A   22142.58334491  .00027791  00000-0  17588-2 0  9995,2 51104  53.2122  36.0818 0001538  59.2063 176.9281 15.08809863  1302,6917.973000000001,95.439,540.901,538.774,0.0
51104.0,STARLINK-3366,PAYLOAD,2022-05-22 22:00:01,15.08823537,0.0001715,53.2123,34.5868,57.9846,189.7887,-0.00050661,-8.338e-05,0.0,0 STARLINK-3366,1 51104U 22005A   22142.91668981 -.00008338  00000-0 -50661-3 0  9994,2 51104  53.2123  34.5868 0001715  57.9846 189.7887 15.08823537 20637,6917.931,95.439,540.982,538.609,0.0
51104.0,STARLINK-3366,PAYLOAD,2022-05-23 14:00:01,15.08853252,0.0001662,53.2147,31.5886,63.4091,207.4574,-0.0096025,-0.00150003,0.0,0 STARLINK-3366,1 51104U 22005A   22143.58334491 -.00150003  00000-0 -96025-2 0  9994,2 51104  53.2147  31.5886 0001662  63.4091 207.4574 15.08853252  1306,6917.84,95.437,540.855,538.555,0.0
51104.0,STARLINK-3366,PAYLOAD,2022-05-23 22:00:01,15.08832053,0.0001646,53.212,30.0974,56.9095,225.6014,6.9642e-05,8.2e-06,0.0,0 STARLINK-3366,1 51104U 22005A   22143.91668981  .00000820  00000-0  69642-4 0  9991,2 51104  53.2120  30.0974 0001646  56.9095 225.6014 15.08832053 20782,6917.905,95.438,540.908,538.631,0.0
51104.0,STARLINK-3366,PAYLOAD,2022-05-24 14:00:01,15.08831564,0.0001587,53.2147,27.0992,61.9483,243.6884,-0.0060356,-0.00095058,0.0,0 STARLINK-3366,1 51104U 22005A   22144.58334491 -.00095058  00000-0 -60356-2 0  9991,2 51104  53.2147  27.0992 0001587  61.9483 243.6884 15.08831564  1306,6917.906,95.438,540.869,538.673,0.0
51104.0,STARLINK-3366,PAYLOAD,2022-05-24 22:00:00,15.08843285,0.0001629999999999,53.212,25.6079,55.1467,262.0671,-0.00044944,-7.434e-05,0.0,0 STARLINK-3366,1 51104U 22005A   22144.91667824 -.00007434  00000-0 -44944-3 0  9994,2 51104  53.2120  25.6079 0001630  55.1467 262.0671 15.08843285  1305,6917.87,95.437,540.863,538.6080000000002,0.0
51104.0,STARLINK-3366,PAYLOAD,2022-05-25 06:00:00,15.08860396,0.0001694,53.2119,24.1112,52.7702,276.0393,-0.0026772,-0.00042668,0.0,0 STARLINK-3366,1 51104U 22005A   22145.25001157 -.00042668  00000-0 -26772-2 0  9999,2 51104  53.2119  24.1112 0001694  52.7702 276.0393 15.08860396 20983,6917.818,95.436,540.855,538.511,0.0
